JILIN-1 03              
1 41914U 17002B   26201.31682558  .00007477  00000+0  17542-3 0  9994
2 41914  97.1958 207.9523 0007585  65.7646 294.4394 15.42310654526961
CARTOSAT-2D             
1 41948U 17008A   26201.28777697  .00002179  00000+0  10639-3 0  9996
2 41948  97.4086 259.9722 0006398 125.1995 234.9839 15.19306667522603
CARTOSAT-2E             
1 42767U 17036C   26201.30564363  .00002259  00000+0  11032-3 0  9991
2 42767  97.4250 260.5589 0003873 171.7292 188.4008 15.19275638503172
IRIDIUM 113             
1 42803U 17039A   26201.24086999  .00000058  00000+0  13728-4 0  9992
2 42803  86.3992 308.3647 0002124  92.8099 267.3340 14.34217779475920
NORSAT 2                
1 42828U 17042D   26201.02675311  .00006147  00000+0  26823-3 0  9995
2 42828  97.4065  13.9636 0007986 298.3678  61.6752 15.22481503492731
TECHNOSAT               
1 42829U 17042E   26201.22567404  .00001319  00000+0  96541-4 0  9992
2 42829  97.4324 357.6365 0016946 346.8749  13.2035 15.05126578491679
FLYING LAPTOP           
1 42831U 17042G   26201.31208700  .00001686  00000+0  13499-3 0  9993
2 42831  97.4838 355.6037 0019405  16.2651 343.9193 15.01331962491421
WNISAT 1R               
1 42835U 17042L   26201.00592474  .00000319  00000+0  28821-4 0  9995
2 42835  97.4815 355.9554 0010214  49.1951 311.0158 15.01862657491432
LEMUR-2-GREENBERG       
1 42837U 17042N   26200.94501542  .00009476  00000+0  30660-3 0  9991
2 42837  97.3842  21.4445 0007448 239.5677 120.4829 15.32243019493407
LEMUR-2-FURIAUS         
1 42840U 17042R   26201.28784853  .00009596  00000+0  32045-3 0  9993
2 42840  97.3789  19.6669 0005722 307.6330  52.4391 15.31229856493279
CORVUS BC2              
1 42846U 17042X   26201.00908948  .00001447  00000+0  10194-3 0  9990
2 42846  97.4096   1.0924 0012937   6.5029 353.6364 15.06469708492002
CORVUS BC1              
1 42847U 17042Y   26201.00009589  .00001886  00000+0  13111-3 0  9993
2 42847  97.4129   1.9192 0011167 342.7923  17.2924 15.06635489492037
VRSS-2                  
1 42954U 17060A   26201.28819248  .00000207  00000+0  32888-4 0  9992
2 42954  97.6495 237.5225 0016945 357.3957   2.7165 14.81242093473353
MOHAMMED VI-A           
1 43005U 17070A   26201.33664256 -.00000289  00000+0 -33812-4 0  9994
2 43005  97.9540 273.2094 0001284 101.3034 258.8321 14.77104137468879
FENGYUN 3D              
1 43010U 17072A   26201.27043483  .00000457  00000+0  23766-3 0  9999
2 43010  99.0154 176.2946 0001229   4.3236 355.7949 14.19746473449684
NOAA 20 (JPSS-1)        
1 43013U 17073A   26201.27083966  .00000025  00000+0  33021-4 0  9990
2 43013  98.7772 140.4405 0001565 119.2046 240.9287 14.19517107449163
MAKERSAT 0              
1 43016U 17073D   26199.58482991  .00010616  00000+0  27996-3 0  9994
2 43016  97.4572  82.3624 0105621 160.2361 200.3022 15.33085965471274
RADFXSAT (FOX-1B)       
1 43017U 17073E   26201.14517518  .00003253  00000+0  14349-3 0  9992
2 43017  97.4661  67.6884 0148448 214.2207 144.9390 15.13099239470379
JILIN-1 04              
1 43022U 17074A   26201.29300925  .00008145  00000+0  18547-3 0  9996
2 43022  97.4874 311.8115 0005158  86.8980 273.2858 15.43214769479377
JILIN-1 05              
1 43023U 17074B   26201.25597472  .00004840  00000+0  14801-3 0  9995
2 43023  97.4878 307.8717 0006583 110.7872 249.4076 15.34331703479077
JILIN-1 06              
1 43024U 17074C   26201.23285298  .00003618  00000+0  11227-3 0  9995
2 43024  97.4803 304.8129 0008331 119.2993 240.9084 15.34031350478902
IRIDIUM 116             
1 43072U 17083C   26201.00619492  .00000100  00000+0  28566-4 0  9998
2 43072  86.3986 308.2829 0002496  97.7429 262.4050 14.34216896448873
IRIDIUM 130             
1 43073U 17083D   26201.25355593  .00000291  00000+0  96955-4 0  9993
2 43073  86.3993 308.4582 0002312 100.4245 259.7212 14.34218577448850
LKW-2                   
1 43080U 17084A   26201.26214907  .00002698  00000+0  10525-3 0  9997
2 43080  97.1172 239.5174 0003900 111.1450 249.0207 15.26726008476738
SUPERVIEW-1 03          
1 43099U 18002A   26201.24294270  .00010348  00000+0  24906-3 0  9996
2 43099  97.3121 286.0533 0046556  63.4047 297.1959 15.40320636473452
CARTOSAT-2F             
1 43111U 18004A   26201.27258100  .00001426  00000+0  71018-4 0  9992
2 43111  97.4765 260.5807 0002774 126.1656 233.9836 15.19193819472357
LKW-3                   
1 43146U 18006A   26201.28809645  .00006046  00000+0  17599-3 0  9995
2 43146  97.6654   3.1751 0003466 162.3916 197.7448 15.35811613473795
ASNARO-2                
1 43152U 18007A   26201.31272064  .00005311  00000+0  23286-3 0  9990
2 43152  97.3981 207.7227 0001836  88.9424 271.2023 15.22404301472455
