OBJECT_NAME,OBJECT_ID,EPOCH,MEAN_MOTION,ECCENTRICITY,INCLINATION,RA_OF_ASC_NODE,ARG_OF_PERICENTER,MEAN_ANOMALY,EPHEMERIS_TYPE,CLASSIFICATION_TYPE,NORAD_CAT_ID,ELEMENT_SET_NO,REV_AT_EPOCH,BSTAR,MEAN_MOTION_DOT,MEAN_MOTION_DDOT
JILIN-1 03,2017-002B,2026-07-20T07:36:13.730112,15.42310654,.00075856,97.1958,207.9523,65.7646,294.4394,0,U,41914,999,52696,.17541696E-3,.7477E-4,0
CARTOSAT-2D,2017-008A,2026-07-20T06:54:23.930208,15.19306667,.00063981,97.4086,259.9722,125.1995,234.9839,0,U,41948,999,52260,.10639026E-3,.2179E-4,0
CARTOSAT-2E,2017-036C,2026-07-20T07:20:07.609632,15.19275638,.00038735,97.4250,260.5589,171.7292,188.4008,0,U,42767,999,50317,.11031707E-3,.2259E-4,0
IRIDIUM 113,2017-039A,2026-07-20T05:46:51.167136,14.34217779,.00021247,86.3992,308.3647,92.8099,267.3340,0,U,42803,999,47592,.13727967E-4,.58E-6,0
NORSAT 2,2017-042D,2026-07-20T00:38:31.468704,15.22481503,.00079869,97.4065,13.9636,298.3678,61.6752,0,U,42828,999,49273,.26822938E-3,.6147E-4,0
TECHNOSAT,2017-042E,2026-07-20T05:24:58.237056,15.05126578,.00169463,97.4324,357.6365,346.8749,13.2035,0,U,42829,999,49167,.96540709E-4,.1319E-4,0
FLYING LAPTOP,2017-042G,2026-07-20T07:29:24.316800,15.01331962,.00194053,97.4838,355.6037,16.2651,343.9193,0,U,42831,999,49142,.13498766E-3,.1686E-4,0
WNISAT 1R,2017-042L,2026-07-20T00:08:31.897536,15.01862657,.00102147,97.4815,355.9554,49.1951,311.0158,0,U,42835,999,49143,.28820886E-4,.319E-5,0
LEMUR-2-GREENBERG,2017-042N,2026-07-19T22:40:49.332288,15.32243019,.00074481,97.3842,21.4445,239.5677,120.4829,0,U,42837,999,49340,.30659889E-3,.9476E-4,0
LEMUR-2-FURIAUS,2017-042R,2026-07-20T06:54:30.112992,15.31229856,.00057228,97.3789,19.6669,307.6330,52.4391,0,U,42840,999,49327,.32045388E-3,.9596E-4,0
CORVUS BC2,2017-042X,2026-07-20T00:13:05.331072,15.06469708,.00129378,97.4096,1.0924,6.5029,353.6364,0,U,42846,999,49200,.10193889E-3,.1447E-4,0
CORVUS BC1,2017-042Y,2026-07-20T00:00:08.284896,15.06635489,.00111674,97.4129,1.9192,342.7923,17.2924,0,U,42847,999,49203,.13111278E-3,.1886E-4,0
VRSS-2,2017-060A,2026-07-20T06:54:59.830272,14.81242093,.0016945,97.6495,237.5225,357.3957,2.7165,0,U,42954,999,47335,.32888158E-4,.207E-5,0
MOHAMMED VI-A,2017-070A,2026-07-20T08:04:45.917184,14.77104137,.00012841,97.9540,273.2094,101.3034,258.8321,0,U,43005,999,46887,-.33812162E-4,-.289E-5,0
FENGYUN 3D,2017-072A,2026-07-20T06:29:25.569312,14.19746473,.00012295,99.0154,176.2946,4.3236,355.7949,0,U,43010,999,44968,.23765772E-3,.457E-5,0
NOAA 20 (JPSS-1),2017-073A,2026-07-20T06:30:00.546624,14.19517107,.00015657,98.7772,140.4405,119.2046,240.9287,0,U,43013,999,44916,.33021492E-4,.25E-6,0
MAKERSAT 0,2017-073D,2026-07-18T14:02:09.304224,15.33085965,.0105621,97.4572,82.3624,160.2361,200.3022,0,U,43016,999,47127,.27996E-3,.10616E-3,0
RADFXSAT (FOX-1B),2017-073E,2026-07-20T03:29:03.135552,15.13099239,.01484485,97.4661,67.6884,214.2207,144.9390,0,U,43017,999,47037,.14349287E-3,.3253E-4,0
JILIN-1 04,2017-074A,2026-07-20T07:01:55.999200,15.43214769,.0005158,97.4874,311.8115,86.8980,273.2858,0,U,43022,999,47937,.18546629E-3,.8145E-4,0
JILIN-1 05,2017-074B,2026-07-20T06:08:36.215808,15.34331703,.00065831,97.4878,307.8717,110.7872,249.4076,0,U,43023,999,47907,.14800972E-3,.484E-4,0
JILIN-1 06,2017-074C,2026-07-20T05:35:18.497472,15.34031350,.00083317,97.4803,304.8129,119.2993,240.9084,0,U,43024,999,47890,.11227418E-3,.3618E-4,0
IRIDIUM 116,2017-083C,2026-07-20T00:08:55.241088,14.34216896,.00024966,86.3986,308.2829,97.7429,262.4050,0,U,43072,999,44887,.28565514E-4,.1E-5,0
IRIDIUM 130,2017-083D,2026-07-20T06:05:07.232352,14.34218577,.00023124,86.3993,308.4582,100.4245,259.7212,0,U,43073,999,44885,.96954686E-4,.291E-5,0
LKW-2,2017-084A,2026-07-20T06:17:29.679648,15.26726008,.00039001,97.1172,239.5174,111.1450,249.0207,0,U,43080,999,47673,.10525375E-3,.2698E-4,0
SUPERVIEW-1 03,2018-002A,2026-07-20T05:49:50.249280,15.40320636,.00465561,97.3121,286.0533,63.4047,297.1959,0,U,43099,999,47345,.24905947E-3,.10348E-3,0
CARTOSAT-2F,2018-004A,2026-07-20T06:32:30.998400,15.19193819,.00027743,97.4765,260.5807,126.1656,233.9836,0,U,43111,999,47235,.71018372E-4,.1426E-4,0
LKW-3,2018-006A,2026-07-20T06:54:51.533280,15.35811613,.00034669,97.6654,3.1751,162.3916,197.7448,0,U,43146,999,47379,.17599348E-3,.6046E-4,0
ASNARO-2,2018-007A,2026-07-20T07:30:19.063296,15.22404301,.00018365,97.3981,207.7227,88.9424,271.2023,0,U,43152,999,47245,.23286309E-3,.5311E-4,0
